SL-14 R/B               
1 16792U 86046B   26076.48578500  .00000449  00000+0  48897-4 0  9993
2 16792  82.4785  72.8128 0022548 198.6182 161.4212 14.85598106127560
SL-14 R/B               
1 16882U 86055B   26076.56556708  .00000422  00000+0  45791-4 0  9999
2 16882  82.5186 119.2706 0017625 309.1840 203.7466 14.85649766120534
AJISAI (EGS)            
1 16908U 86061A   26076.89398865 -.00000094  00000+0  21081-4 0  9991
2 16908  50.0089  68.1182 0011298 308.1752  63.7277 12.44515703469026
SL-14 R/B               
1 17567U 87024B   26076.38168080  .00000448  00000+0  48262-4 0  9993
2 17567  82.5244  85.5317 0016955 232.2986 127.6694 14.86139520 89270
COSMOS 1833             
1 17589U 87027A   26076.64714344 -.00000215  00000+0 -89092-4 0  9999
2 17589  70.9203 309.2947 0023856 203.1456 156.8592 14.13052393 11449
SL-16 R/B               
1 17590U 87027B   26076.24482204 -.00000017  00000+0  15346-4 0  9994
2 17590  70.9993 260.5727 0003133 125.6346 234.5070 14.17166780 16411
SL-14 R/B               
1 17912U 87038B   26076.85216413  .00000406  00000+0  44236-4 0  9999
2 17912  82.4988 289.1170 0020322 134.5280 225.7600 14.85376403 80440
COSMOS 1844             
1 17973U 87041A   26076.88600959 -.00000031  00000+0  89805-5 0  9992
2 17973  70.9007  16.8875 0030435   5.8863 354.2610 14.14551103  4743
SL-14 R/B               
1 18153U 87055B   26076.82761762  .00000434  00000+0  47142-4 0  9995
2 18153  82.5027 341.3636 0020400 351.2775   8.8083 14.85638339 71146
COSMOS 1867             
1 18187U 87060A   26076.82465353 -.00000038  00000+0  23346-4 0  9996
2 18187  65.0098 283.9231 0014602 279.1122  80.8310 14.31504251 21100
SL-14 R/B               
1 18749U 88001B   26076.82351337  .00000474  00000+0  51924-4 0  9998
2 18749  82.5160 187.7120 0017379 207.2409 152.7897 14.85537372 43236
COSMOS 1933             
1 18958U 88020A   26076.83199148  .00003096  00000+0  15055-3 0  9999
2 18958  82.5102 242.8537 0004513 155.4562 204.6887 15.18060195 51460
